{
"type": "FeatureCollection",
"name": "CAMP",
"features": [
{ "type": "Feature", "properties": { "Name": "CAMP EDJOOM" }, "geometry": { "type": "Point", "coordinates": [ 81.1364278, 19.3391583, 0.0 ] } },
{ "type": "Feature", "properties": { "Name": "CAMP ANJREL" }, "geometry": { "type": "Point", "coordinates": [ 81.1664518, 19.8130583, 0.0 ] } },
{ "type": "Feature", "properties": { "Name": "C-KODLIYAR" }, "geometry": { "type": "Point", "coordinates": [ 81.0398417, 19.5473278, 0.0 ] } },
{ "type": "Feature", "properties": { "Name": "CAMP KHODGAON" }, "geometry": { "type": "Point", "coordinates": [ 81.173771, 19.795954, 0.0 ] } },
{ "type": "Feature", "properties": { "Name": "C- GARPA" }, "geometry": { "type": "Point", "coordinates": [ 80.8490982, 19.7597339, 0.0 ] } },
{ "type": "Feature", "properties": { "Name": "Camp Nelwad" }, "geometry": { "type": "Point", "coordinates": [ 81.3395663, 19.6986102, 0.0 ] } },
{ "type": "Feature", "properties": { "Name": "Camp Bhatpal" }, "geometry": { "type": "Point", "coordinates": [ 81.4596082, 19.6523811, 0.0 ] } },
{ "type": "Feature", "properties": { "Name": "Camp Kokodi" }, "geometry": { "type": "Point", "coordinates": [ 81.5620322, 19.6453972, 0.0 ] } },
{ "type": "Feature", "properties": { "Name": "C- MASPUR" }, "geometry": { "type": "Point", "coordinates": [ 80.9431592, 19.746894, 0.0 ] } },
{ "type": "Feature", "properties": { "Name": "C- D-IBEDA" }, "geometry": { "type": "Point", "coordinates": [ 80.9677545, 19.712615, 0.0 ] } },
{ "type": "Feature", "properties": { "Name": "CAMP BASING" }, "geometry": { "type": "Point", "coordinates": [ 81.078247, 19.7081031, 0.0 ] } },
{ "type": "Feature", "properties": { "Name": "C- AKABEDA" }, "geometry": { "type": "Point", "coordinates": [ 81.1785388, 19.5925905, 0.0 ] } },
{ "type": "Feature", "properties": { "Name": "CAMP K-META" }, "geometry": { "type": "Point", "coordinates": [ 81.1440006, 19.5656513, 0.0 ] } },
{ "type": "Feature", "properties": { "Name": "CAMP M-META" }, "geometry": { "type": "Point", "coordinates": [ 81.3140218, 19.6640795, 0.0 ] } },
{ "type": "Feature", "properties": { "Name": "CAMP AMDAI" }, "geometry": { "type": "Point", "coordinates": [ 81.3021737, 19.4612463, 0.0 ] } },
{ "type": "Feature", "properties": { "Name": "C- PANGUD" }, "geometry": { "type": "Point", "coordinates": [ 80.7564732, 19.789347, 0.0 ] } },
{ "type": "Feature", "properties": { "Name": "CAMP D- HILLS" }, "geometry": { "type": "Point", "coordinates": [ 81.2866343, 19.4368704, 0.0 ] } },
{ "type": "Feature", "properties": { "Name": "CAMP K-GAON" }, "geometry": { "type": "Point", "coordinates": [ 81.38499, 19.422177, 0.0 ] } },
{ "type": "Feature", "properties": { "Name": "CAMP K-META" }, "geometry": { "type": "Point", "coordinates": [ 81.3824667, 19.311909, 0.0 ] } },
{ "type": "Feature", "properties": { "Name": "CAMP KADENAR" }, "geometry": { "type": "Point", "coordinates": [ 81.4054333, 19.3563758, 0.0 ] } },
{ "type": "Feature", "properties": { "Name": "C- HORADI" }, "geometry": { "type": "Point", "coordinates": [ 80.9012611, 19.75355, 0.0 ] } },
{ "type": "Feature", "properties": { "Name": "C- KACHAPAL" }, "geometry": { "type": "Point", "coordinates": [ 81.0277502, 19.5834675, 0.0 ] } },
{ "type": "Feature", "properties": { "Name": "C-IRAKBHATTI" }, "geometry": { "type": "Point", "coordinates": [ 81.0441739, 19.6133565, 0.0 ] } },
{ "type": "Feature", "properties": { "Name": "C- KUTUL" }, "geometry": { "type": "Point", "coordinates": [ 81.0217174, 19.5256811, 0.0 ] } },
{ "type": "Feature", "properties": { "Name": "C- Mohndi" }, "geometry": { "type": "Point", "coordinates": [ 81.0953453, 19.563785, 0.0 ] } },
{ "type": "Feature", "properties": { "Name": "C- BEDMAKOTI" }, "geometry": { "type": "Point", "coordinates": [ 80.9740634, 19.5237163, 0.0 ] } },
{ "type": "Feature", "properties": { "Name": "C- PADAMKOT" }, "geometry": { "type": "Point", "coordinates": [ 80.9364697, 19.5095395, 0.0 ] } },
{ "type": "Feature", "properties": { "Name": "C- KANDULPAR" }, "geometry": { "type": "Point", "coordinates": [ 80.8097464, 19.7786182, 0.0 ] } },
{ "type": "Feature", "properties": { "Name": "C- NELANGUR" }, "geometry": { "type": "Point", "coordinates": [ 80.9064917, 19.48385, 0.0 ] } },
{ "type": "Feature", "properties": { "Name": "C-RAINAR" }, "geometry": { "type": "Point", "coordinates": [ 81.213174, 19.4073734, 0.0 ] } },
{ "type": "Feature", "properties": { "Name": "C-EDJOOM" }, "geometry": { "type": "Point", "coordinates": [ 81.1363173, 19.3346697, 0.0 ] } }
]
}
