{
"type": "FeatureCollection",
"name": "other distirict",
"features": [
{ "type": "Feature", "properties": { "Name": "CAMP MARBERA" }, "geometry": { "type": "Point", "coordinates": [ 80.65, 19.8058333, 0.0 ] } },
{ "type": "Feature", "properties": { "Name": "PS Chhotebethia" }, "geometry": { "type": "Point", "coordinates": [ 80.6329296, 19.8521306, 0.0 ] } },
{ "type": "Feature", "properties": { "Name": "Camp Sangam" }, "geometry": { "type": "Point", "coordinates": [ 80.707332, 19.963036, 0.0 ] } },
{ "type": "Feature", "properties": { "Name": "Camp Partapur" }, "geometry": { "type": "Point", "coordinates": [ 80.731545, 19.991025, 0.0 ] } },
{ "type": "Feature", "properties": { "Name": "Camp Mahla" }, "geometry": { "type": "Point", "coordinates": [ 80.783509, 19.971103, 0.0 ] } },
{ "type": "Feature", "properties": { "Name": "Camp Kamtera" }, "geometry": { "type": "Point", "coordinates": [ 80.8925, 19.972222, 0.0 ] } },
{ "type": "Feature", "properties": { "Name": "Camp Udanpur" }, "geometry": { "type": "Point", "coordinates": [ 80.929444, 19.969722, 0.0 ] } },
{ "type": "Feature", "properties": { "Name": "CAMP DHUTA" }, "geometry": { "type": "Point", "coordinates": [ 80.987222, 19.9175, 0.0 ] } },
{ "type": "Feature", "properties": { "Name": "Camp Chilparash" }, "geometry": { "type": "Point", "coordinates": [ 80.981111, 19.888611, 0.0 ] } },
{ "type": "Feature", "properties": { "Name": "Camp Abujh" }, "geometry": { "type": "Point", "coordinates": [ 81.179722, 19.849167, 0.0 ] } },
{ "type": "Feature", "properties": { "Name": "Camp Talabeda" }, "geometry": { "type": "Point", "coordinates": [ 81.179722, 19.931111, 0.0 ] } },
{ "type": "Feature", "properties": { "Name": "Ps Tarroki" }, "geometry": { "type": "Point", "coordinates": [ 81.159429, 19.96622, 0.0 ] } },
{ "type": "Feature", "properties": { "Name": "Camp Padargaon" }, "geometry": { "type": "Point", "coordinates": [ 81.133331, 19.90966, 0.0 ] } },
{ "type": "Feature", "properties": { "Name": "Ps Urandbera" }, "geometry": { "type": "Point", "coordinates": [ 81.465806, 19.848478, 0.0 ] } },
{ "type": "Feature", "properties": { "Name": "PS Bade Dongar" }, "geometry": { "type": "Point", "coordinates": [ 81.535966, 19.807642, 0.0 ] } },
{ "type": "Feature", "properties": { "Name": "Ps Bayanar" }, "geometry": { "type": "Point", "coordinates": [ 81.4897283, 19.5473508, 0.0 ] } },
{ "type": "Feature", "properties": { "Name": "Camp Hadeli" }, "geometry": { "type": "Point", "coordinates": [ 81.4778571, 19.3637214, 0.0 ] } },
{ "type": "Feature", "properties": { "Name": "CAMP-RANAPAL" }, "geometry": { "type": "Point", "coordinates": [ 81.528557, 19.3626095, 0.0 ] } },
{ "type": "Feature", "properties": { "Name": "CAMP BODELI" }, "geometry": { "type": "Point", "coordinates": [ 81.388596, 19.259921, 0.0 ] } },
{ "type": "Feature", "properties": { "Name": "PS MALEWAHI" }, "geometry": { "type": "Point", "coordinates": [ 81.409915, 19.205455, 0.0 ] } },
{ "type": "Feature", "properties": { "Name": "Ps Barsoor" }, "geometry": { "type": "Point", "coordinates": [ 81.375837, 19.136259, 0.0 ] } },
{ "type": "Feature", "properties": { "Name": "camp chindnar" }, "geometry": { "type": "Point", "coordinates": [ 81.3174278, 19.0822083, 0.0 ] } },
{ "type": "Feature", "properties": { "Name": "Ps Nelasnar" }, "geometry": { "type": "Point", "coordinates": [ 81.1832925, 18.9984384, 0.0 ] } },
{ "type": "Feature", "properties": { "Name": "CAMP PHUNDRI" }, "geometry": { "type": "Point", "coordinates": [ 81.1348147, 19.0065817, 0.0 ] } },
{ "type": "Feature", "properties": { "Name": "Ps Bhairamgarh" }, "geometry": { "type": "Point", "coordinates": [ 81.0766858, 19.0102986, 0.0 ] } },
{ "type": "Feature", "properties": { "Name": "Camp Jegur" }, "geometry": { "type": "Point", "coordinates": [ 80.8632307, 19.0662111, 0.0 ] } },
{ "type": "Feature", "properties": { "Name": "Ps Kutru" }, "geometry": { "type": "Point", "coordinates": [ 80.7896153, 19.0951331, 0.0 ] } },
{ "type": "Feature", "properties": { "Name": "Camp Karkeli" }, "geometry": { "type": "Point", "coordinates": [ 80.719975, 19.1917083, 0.0 ] } },
{ "type": "Feature", "properties": { "Name": "Camp Bedare" }, "geometry": { "type": "Point", "coordinates": [ 80.714843, 19.230408, 0.0 ] } }
]
}
