{
"type": "FeatureCollection",
"name": "ROAD",
"features": [
{ "type": "Feature", "properties": { "Name": "NPR TO MASPUR" }, "geometry": { "type": "LineString", "coordinates": [ [ 81.2472113, 19.7186632, 0.0 ], [ 81.2429752, 19.7187595, 0.0 ], [ 81.2386429, 19.7189709, 0.0 ], [ 81.2337278, 19.719249, 0.0 ], [ 81.231844, 19.7189958, 0.0 ], [ 81.2278275, 19.716323, 0.0 ], [ 81.2261452, 19.7147008, 0.0 ], [ 81.225529, 19.7142493, 0.0 ], [ 81.2249289, 19.7142175, 0.0 ], [ 81.2224694, 19.7146238, 0.0 ], [ 81.2200762, 19.7150779, 0.0 ], [ 81.2183506, 19.7156027, 0.0 ], [ 81.2168215, 19.716283, 0.0 ], [ 81.216339, 19.7162506, 0.0 ], [ 81.2151678, 19.7157083, 0.0 ], [ 81.213939, 19.7151495, 0.0 ], [ 81.2120217, 19.7152557, 0.0 ], [ 81.2100643, 19.7155348, 0.0 ], [ 81.2088139, 19.7158386, 0.0 ], [ 81.2066519, 19.7162358, 0.0 ], [ 81.2035626, 19.7166202, 0.0 ], [ 81.2024499, 19.7159995, 0.0 ], [ 81.2005079, 19.7149128, 0.0 ], [ 81.1977944, 19.7131211, 0.0 ], [ 81.196342, 19.7123073, 0.0 ], [ 81.1946872, 19.7114089, 0.0 ], [ 81.1933824, 19.7106849, 0.0 ], [ 81.1910391, 19.7094072, 0.0 ], [ 81.1902061, 19.7082946, 0.0 ], [ 81.1894887, 19.7074284, 0.0 ], [ 81.1889171, 19.7069621, 0.0 ], [ 81.1875907, 19.7069064, 0.0 ], [ 81.1866133, 19.7067771, 0.0 ], [ 81.1849043, 19.7069588, 0.0 ], [ 81.1809893, 19.7075135, 0.0 ], [ 81.1792252, 19.70685, 0.0 ], [ 81.1772639, 19.7059032, 0.0 ], [ 81.1757248, 19.705187, 0.0 ], [ 81.1752276, 19.7049633, 0.0 ], [ 81.1740522, 19.7047286, 0.0 ], [ 81.1714236, 19.7049081, 0.0 ], [ 81.1684671, 19.7047637, 0.0 ], [ 81.1666259, 19.7046456, 0.0 ], [ 81.1649117, 19.704312, 0.0 ], [ 81.1637514, 19.7038799, 0.0 ], [ 81.1628493, 19.7034035, 0.0 ], [ 81.1615116, 19.7029426, 0.0 ], [ 81.1605979, 19.7028132, 0.0 ], [ 81.1592092, 19.7029257, 0.0 ], [ 81.1577134, 19.7031092, 0.0 ], [ 81.1568663, 19.7033156, 0.0 ], [ 81.1555986, 19.7037811, 0.0 ], [ 81.1546375, 19.7040189, 0.0 ], [ 81.1534006, 19.7042281, 0.0 ], [ 81.1522039, 19.704375, 0.0 ], [ 81.1505535, 19.7043296, 0.0 ], [ 81.1496888, 19.7039636, 0.0 ], [ 81.1486674, 19.7036528, 0.0 ], [ 81.1474846, 19.7033309, 0.0 ], [ 81.1460655, 19.7026071, 0.0 ], [ 81.1438707, 19.7015143, 0.0 ], [ 81.1430786, 19.7002345, 0.0 ], [ 81.1424484, 19.6997033, 0.0 ], [ 81.1418906, 19.6991421, 0.0 ], [ 81.1411997, 19.6988467, 0.0 ], [ 81.1406917, 19.698764, 0.0 ], [ 81.140253, 19.6990557, 0.0 ], [ 81.1396658, 19.6995894, 0.0 ], [ 81.1389566, 19.6998791, 0.0 ], [ 81.1381973, 19.7001678, 0.0 ], [ 81.1372178, 19.7006904, 0.0 ], [ 81.1362237, 19.701312, 0.0 ], [ 81.1353564, 19.7020494, 0.0 ], [ 81.1343649, 19.7028253, 0.0 ], [ 81.13299, 19.7036367, 0.0 ], [ 81.1324262, 19.7039209, 0.0 ], [ 81.1318352, 19.7037951, 0.0 ], [ 81.1312708, 19.7034427, 0.0 ], [ 81.1307324, 19.7028868, 0.0 ], [ 81.1305105, 19.7024496, 0.0 ], [ 81.1297236, 19.7021579, 0.0 ], [ 81.1290814, 19.7020461, 0.0 ], [ 81.127551, 19.7019577, 0.0 ], [ 81.1262378, 19.7015097, 0.0 ], [ 81.1248423, 19.7011513, 0.0 ], [ 81.1239114, 19.7009858, 0.0 ], [ 81.1227195, 19.7010133, 0.0 ], [ 81.1212639, 19.7010593, 0.0 ], [ 81.1196426, 19.7011207, 0.0 ], [ 81.1180258, 19.7011069, 0.0 ], [ 81.1177648, 19.7010468, 0.0 ], [ 81.1168198, 19.7002172, 0.0 ], [ 81.11564, 19.6998593, 0.0 ], [ 81.1146418, 19.6996493, 0.0 ], [ 81.1138636, 19.699281, 0.0 ], [ 81.1129844, 19.6988897, 0.0 ], [ 81.1120982, 19.698587, 0.0 ], [ 81.1105559, 19.698535, 0.0 ], [ 81.1090817, 19.698555, 0.0 ], [ 81.1077772, 19.6984669, 0.0 ], [ 81.1068587, 19.6986407, 0.0 ], [ 81.105207, 19.6995032, 0.0 ], [ 81.1036889, 19.7002108, 0.0 ], [ 81.1012215, 19.7017937, 0.0 ], [ 81.0996162, 19.7024569, 0.0 ], [ 81.0983597, 19.7028352, 0.0 ], [ 81.0968992, 19.7032609, 0.0 ], [ 81.0960612, 19.703657, 0.0 ], [ 81.0952422, 19.704577, 0.0 ], [ 81.0945401, 19.7053774, 0.0 ], [ 81.0932487, 19.7063099, 0.0 ], [ 81.0920414, 19.7065913, 0.0 ], [ 81.0907608, 19.7067431, 0.0 ], [ 81.0888496, 19.7068749, 0.0 ], [ 81.0872763, 19.7070707, 0.0 ], [ 81.0855657, 19.7071471, 0.0 ], [ 81.0849194, 19.7065313, 0.0 ], [ 81.0842892, 19.7064403, 0.0 ], [ 81.0836156, 19.7070012, 0.0 ], [ 81.082915, 19.7073618, 0.0 ], [ 81.0816364, 19.7074492, 0.0 ], [ 81.078514, 19.706686, 0.0 ], [ 81.0763923, 19.7063377, 0.0 ], [ 81.0739748, 19.7056824, 0.0 ], [ 81.0698699, 19.7041613, 0.0 ], [ 81.0681514, 19.7034261, 0.0 ], [ 81.0674852, 19.7031378, 0.0 ], [ 81.0619956, 19.7024748, 0.0 ], [ 81.0572864, 19.7019686, 0.0 ], [ 81.0549382, 19.7022075, 0.0 ], [ 81.052972, 19.7022505, 0.0 ], [ 81.0520951, 19.7023869, 0.0 ], [ 81.0509895, 19.7026608, 0.0 ], [ 81.0501754, 19.7026571, 0.0 ], [ 81.0491715, 19.7027243, 0.0 ], [ 81.0472375, 19.7025697, 0.0 ], [ 81.0453715, 19.7022575, 0.0 ], [ 81.0438395, 19.7021253, 0.0 ], [ 81.0430685, 19.7021161, 0.0 ], [ 81.0406409, 19.7020589, 0.0 ], [ 81.0387323, 19.7016795, 0.0 ], [ 81.0369672, 19.7013655, 0.0 ], [ 81.034923, 19.7007775, 0.0 ], [ 81.032714, 19.7004164, 0.0 ], [ 81.0302379, 19.6999576, 0.0 ], [ 81.0271174, 19.6995781, 0.0 ], [ 81.025785, 19.6997102, 0.0 ], [ 81.0247646, 19.6997922, 0.0 ], [ 81.0234505, 19.7000155, 0.0 ], [ 81.0218477, 19.7005856, 0.0 ], [ 81.0204292, 19.701323, 0.0 ], [ 81.0194909, 19.701723, 0.0 ], [ 81.0176786, 19.7021774, 0.0 ], [ 81.0160375, 19.7022445, 0.0 ], [ 81.0139787, 19.7022893, 0.0 ], [ 81.0125473, 19.7030212, 0.0 ], [ 81.0104742, 19.7042439, 0.0 ], [ 81.0084721, 19.7052101, 0.0 ], [ 81.0069409, 19.705736, 0.0 ], [ 81.0047525, 19.7054681, 0.0 ], [ 81.0029611, 19.7055005, 0.0 ], [ 80.9989488, 19.7053224, 0.0 ], [ 80.9963991, 19.7052343, 0.0 ], [ 80.9926415, 19.7048948, 0.0 ], [ 80.9883549, 19.7054806, 0.0 ], [ 80.982749, 19.7068587, 0.0 ], [ 80.9784457, 19.7081443, 0.0 ], [ 80.9746941, 19.7103062, 0.0 ], [ 80.9708136, 19.7120212, 0.0 ], [ 80.967914, 19.7134369, 0.0 ], [ 80.9667906, 19.7149198, 0.0 ], [ 80.9658736, 19.7180201, 0.0 ], [ 80.9644712, 19.7202395, 0.0 ], [ 80.9633962, 19.7222926, 0.0 ], [ 80.9625015, 19.724407, 0.0 ], [ 80.9616171, 19.7270435, 0.0 ], [ 80.9606973, 19.7293356, 0.0 ], [ 80.9606162, 19.7310178, 0.0 ], [ 80.960736, 19.7331694, 0.0 ], [ 80.9614783, 19.7351485, 0.0 ], [ 80.9624105, 19.7369404, 0.0 ], [ 80.9628462, 19.7382649, 0.0 ], [ 80.9622683, 19.7395136, 0.0 ], [ 80.9614546, 19.740434, 0.0 ], [ 80.9594481, 19.7408563, 0.0 ], [ 80.9580862, 19.7419326, 0.0 ], [ 80.9574504, 19.7427716, 0.0 ], [ 80.9571007, 19.7429555, 0.0 ], [ 80.9560288, 19.7432812, 0.0 ], [ 80.9543331, 19.7438919, 0.0 ], [ 80.9500449, 19.7452088, 0.0 ], [ 80.9481537, 19.7459926, 0.0 ], [ 80.9466896, 19.746324, 0.0 ], [ 80.945833, 19.7464628, 0.0 ], [ 80.9447142, 19.74656, 0.0 ], [ 80.9433361, 19.7470577, 0.0 ], [ 80.9423641, 19.7470423, 0.0 ], [ 80.9414512, 19.746807, 0.0 ], [ 80.9409363, 19.7465418, 0.0 ], [ 80.9403209, 19.7465112, 0.0 ], [ 80.9396049, 19.7463863, 0.0 ], [ 80.9385615, 19.7460949, 0.0 ], [ 80.9375384, 19.7454201, 0.0 ], [ 80.9367685, 19.7450428, 0.0 ], [ 80.9353941, 19.7444002, 0.0 ], [ 80.9342748, 19.7438803, 0.0 ], [ 80.9335928, 19.7435582, 0.0 ], [ 80.9328374, 19.7432902, 0.0 ], [ 80.9323036, 19.7431554, 0.0 ], [ 80.9314938, 19.7432068, 0.0 ], [ 80.9308195, 19.7435843, 0.0 ], [ 80.9302059, 19.7437595, 0.0 ], [ 80.929533, 19.7440295, 0.0 ], [ 80.9288212, 19.744493, 0.0 ], [ 80.927876, 19.7448741, 0.0 ], [ 80.9271316, 19.7452076, 0.0 ], [ 80.9267622, 19.7454967, 0.0 ], [ 80.926131, 19.7456194, 0.0 ], [ 80.9254294, 19.7457144, 0.0 ], [ 80.9243814, 19.7455654, 0.0 ], [ 80.9227085, 19.7462079, 0.0 ], [ 80.9212578, 19.7467372, 0.0 ], [ 80.9204065, 19.7470147, 0.0 ], [ 80.9195598, 19.7473181, 0.0 ], [ 80.9191225, 19.7473434, 0.0 ], [ 80.9185694, 19.7474915, 0.0 ], [ 80.9182538, 19.7476959, 0.0 ], [ 80.9181718, 19.7479595, 0.0 ], [ 80.9180787, 19.7481083, 0.0 ], [ 80.917626, 19.7481042, 0.0 ], [ 80.9170571, 19.7480857, 0.0 ], [ 80.9169062, 19.7480867, 0.0 ], [ 80.9162438, 19.7482124, 0.0 ], [ 80.9154315, 19.7484989, 0.0 ], [ 80.914985, 19.7485438, 0.0 ], [ 80.9143119, 19.7484372, 0.0 ], [ 80.9138461, 19.7483616, 0.0 ], [ 80.9134417, 19.7482028, 0.0 ], [ 80.9129914, 19.7481162, 0.0 ], [ 80.9126643, 19.7480824, 0.0 ], [ 80.9115051, 19.7477333, 0.0 ], [ 80.9110026, 19.747984, 0.0 ], [ 80.9103485, 19.7482733, 0.0 ], [ 80.9095901, 19.7485784, 0.0 ], [ 80.9084375, 19.7489367, 0.0 ], [ 80.9079129, 19.7491149, 0.0 ], [ 80.9056616, 19.7501095, 0.0 ], [ 80.905244, 19.7504234, 0.0 ], [ 80.9046211, 19.750976, 0.0 ], [ 80.9037942, 19.751451, 0.0 ], [ 80.903256, 19.7516683, 0.0 ], [ 80.9025999, 19.7519076, 0.0 ], [ 80.901862, 19.7521349, 0.0 ], [ 80.9009391, 19.7523304, 0.0 ], [ 80.9003523, 19.7524943, 0.0 ], [ 80.8996211, 19.7526934, 0.0 ], [ 80.8989862, 19.7527459, 0.0 ], [ 80.8984946, 19.7529165, 0.0 ], [ 80.8982096, 19.7530711, 0.0 ], [ 80.8977192, 19.7533166, 0.0 ], [ 80.8974107, 19.7536706, 0.0 ], [ 80.8970625, 19.7538511, 0.0 ], [ 80.8966831, 19.7538479, 0.0 ], [ 80.8960605, 19.7537062, 0.0 ], [ 80.8955057, 19.753669, 0.0 ], [ 80.8951806, 19.7535962, 0.0 ], [ 80.8949293, 19.7535975, 0.0 ], [ 80.8946054, 19.7537048, 0.0 ], [ 80.8936069, 19.7543104, 0.0 ], [ 80.8930142, 19.7546941, 0.0 ], [ 80.8922547, 19.7548688, 0.0 ], [ 80.8912194, 19.7551158, 0.0 ], [ 80.8903768, 19.755307, 0.0 ], [ 80.8892289, 19.7554674, 0.0 ], [ 80.8886061, 19.7556249, 0.0 ], [ 80.8879095, 19.7557999, 0.0 ], [ 80.887461, 19.7560081, 0.0 ], [ 80.8868824, 19.7564335, 0.0 ], [ 80.8860629, 19.7570536, 0.0 ], [ 80.8851215, 19.7576789, 0.0 ], [ 80.884293, 19.7583018, 0.0 ], [ 80.8838473, 19.7587872, 0.0 ], [ 80.8834245, 19.7591745, 0.0 ], [ 80.8831396, 19.7594175, 0.0 ], [ 80.882905, 19.7603772, 0.0 ], [ 80.8826362, 19.760961, 0.0 ], [ 80.8825287, 19.7614895, 0.0 ], [ 80.8826956, 19.7619948, 0.0 ], [ 80.8828334, 19.7625105, 0.0 ], [ 80.8828227, 19.7629638, 0.0 ], [ 80.8822529, 19.7631797, 0.0 ], [ 80.8817107, 19.7632527, 0.0 ], [ 80.8813915, 19.7633027, 0.0 ], [ 80.8784545, 19.7633039, 0.0 ], [ 80.8774377, 19.7629954, 0.0 ], [ 80.8765204, 19.7627915, 0.0 ], [ 80.8743065, 19.7625362, 0.0 ], [ 80.8735197, 19.7624952, 0.0 ], [ 80.8723935, 19.7624287, 0.0 ], [ 80.8712244, 19.7623242, 0.0 ], [ 80.870546, 19.7622861, 0.0 ], [ 80.8698026, 19.7620747, 0.0 ], [ 80.8689817, 19.7619077, 0.0 ], [ 80.8685005, 19.7618967, 0.0 ], [ 80.868228, 19.7619032, 0.0 ], [ 80.8658446, 19.7616594, 0.0 ], [ 80.8643335, 19.7615101, 0.0 ], [ 80.863315, 19.7610822, 0.0 ], [ 80.8627568, 19.7608461, 0.0 ], [ 80.8617322, 19.7604067, 0.0 ], [ 80.8613401, 19.7602948, 0.0 ], [ 80.8610297, 19.7602566, 0.0 ], [ 80.8604917, 19.7599782, 0.0 ], [ 80.8600187, 19.759706, 0.0 ], [ 80.8595639, 19.7595995, 0.0 ], [ 80.859348, 19.7596983, 0.0 ], [ 80.8592848, 19.7601178, 0.0 ], [ 80.859284, 19.7601492, 0.0 ], [ 80.859245, 19.7604449, 0.0 ], [ 80.8590265, 19.7605874, 0.0 ], [ 80.858676, 19.7605666, 0.0 ], [ 80.8582925, 19.7604266, 0.0 ], [ 80.8580871, 19.7600821, 0.0 ], [ 80.858, 19.7597747, 0.0 ], [ 80.857923, 19.7594821, 0.0 ], [ 80.8576132, 19.7593289, 0.0 ], [ 80.8573405, 19.7592455, 0.0 ], [ 80.8569438, 19.7591988, 0.0 ], [ 80.8564022, 19.7590914, 0.0 ], [ 80.8558664, 19.7589502, 0.0 ], [ 80.8554013, 19.7588724, 0.0 ], [ 80.8549698, 19.7588156, 0.0 ], [ 80.8546907, 19.7588029, 0.0 ], [ 80.8543626, 19.7587359, 0.0 ], [ 80.854002, 19.7587061, 0.0 ], [ 80.8535117, 19.7586888, 0.0 ], [ 80.853069, 19.7587335, 0.0 ], [ 80.8527264, 19.7587846, 0.0 ], [ 80.8524052, 19.7588115, 0.0 ], [ 80.8520079, 19.7587789, 0.0 ], [ 80.8516709, 19.7587971, 0.0 ], [ 80.8513808, 19.7588744, 0.0 ], [ 80.8494444, 19.759854, 0.0 ], [ 80.8483063, 19.7604295, 0.0 ], [ 80.8473292, 19.7600761, 0.0 ], [ 80.8462831, 19.7590001, 0.0 ], [ 80.8449608, 19.7579896, 0.0 ], [ 80.8435435, 19.7565656, 0.0 ], [ 80.8428252, 19.7569624, 0.0 ], [ 80.8419299, 19.7570878, 0.0 ], [ 80.8418484, 19.7570901, 0.0 ], [ 80.8408502, 19.7572048, 0.0 ], [ 80.8406678, 19.7572132, 0.0 ], [ 80.8405438, 19.7572143, 0.0 ], [ 80.8398184, 19.7571473, 0.0 ], [ 80.8384924, 19.7570437, 0.0 ], [ 80.8370023, 19.757039, 0.0 ], [ 80.8360286, 19.757095, 0.0 ], [ 80.8359481, 19.7571106, 0.0 ], [ 80.8353034, 19.7571818, 0.0 ], [ 80.8351425, 19.7571788, 0.0 ], [ 80.8344989, 19.7572584, 0.0 ], [ 80.8338587, 19.7573313, 0.0 ], [ 80.8331321, 19.757339, 0.0 ], [ 80.8328785, 19.7573686, 0.0 ], [ 80.8318863, 19.7572638, 0.0 ], [ 80.8312387, 19.7571353, 0.0 ], [ 80.8286721, 19.7566452, 0.0 ], [ 80.827052, 19.7563404, 0.0 ], [ 80.8261786, 19.7562017, 0.0 ], [ 80.8254261, 19.7559657, 0.0 ], [ 80.8248035, 19.755689, 0.0 ], [ 80.8244062, 19.7557228, 0.0 ], [ 80.8241887, 19.7562199, 0.0 ], [ 80.8231948, 19.7567013, 0.0 ], [ 80.8219572, 19.7562482, 0.0 ], [ 80.8209818, 19.7560708, 0.0 ], [ 80.8203552, 19.7560714, 0.0 ], [ 80.8196738, 19.7563898, 0.0 ], [ 80.8193501, 19.7568981, 0.0 ], [ 80.8187929, 19.7573662, 0.0 ], [ 80.8187629, 19.7573783, 0.0 ], [ 80.8182659, 19.7575262, 0.0 ], [ 80.817679, 19.7577186, 0.0 ], [ 80.8169666, 19.7579999, 0.0 ], [ 80.8167469, 19.7582456, 0.0 ], [ 80.8165794, 19.7587512, 0.0 ], [ 80.8165364, 19.759616, 0.0 ], [ 80.816628, 19.7607659, 0.0 ], [ 80.8161064, 19.7614945, 0.0 ], [ 80.8160752, 19.7615364, 0.0 ], [ 80.8153094, 19.7622095, 0.0 ], [ 80.8145821, 19.7628085, 0.0 ], [ 80.8140741, 19.7633398, 0.0 ], [ 80.8135887, 19.7638265, 0.0 ], [ 80.8127041, 19.764744, 0.0 ], [ 80.8114806, 19.7658054, 0.0 ], [ 80.8106847, 19.7666031, 0.0 ], [ 80.8102882, 19.7671992, 0.0 ], [ 80.8093682, 19.7700454, 0.0 ], [ 80.8090717, 19.7709532, 0.0 ], [ 80.8093845, 19.7718344, 0.0 ], [ 80.8100876, 19.7737693, 0.0 ], [ 80.8098523, 19.7746916, 0.0 ], [ 80.8097759, 19.7753293, 0.0 ], [ 80.8095224, 19.7759631, 0.0 ], [ 80.7910145, 19.7849154, 0.0 ], [ 80.789831, 19.786047, 0.0 ], [ 80.7888226, 19.7867728, 0.0 ], [ 80.7869848, 19.787676, 0.0 ], [ 80.7847189, 19.7881732, 0.0 ], [ 80.7821369, 19.7882531, 0.0 ], [ 80.7802134, 19.7883001, 0.0 ], [ 80.7775084, 19.787985, 0.0 ], [ 80.7752531, 19.7883556, 0.0 ], [ 80.7750259, 19.7884635, 0.0 ], [ 80.7731017, 19.788946, 0.0 ], [ 80.7730452, 19.7889992, 0.0 ], [ 80.7711808, 19.7894776, 0.0 ], [ 80.7700501, 19.7900628, 0.0 ], [ 80.7693025, 19.7902833, 0.0 ], [ 80.7676628, 19.790389, 0.0 ], [ 80.7658425, 19.7904466, 0.0 ], [ 80.7655622, 19.7904986, 0.0 ], [ 80.7638885, 19.7905422, 0.0 ], [ 80.7621245, 19.7905658, 0.0 ], [ 80.7587398, 19.7897604, 0.0 ], [ 80.7569683, 19.7901085, 0.0 ] ] } },
{ "type": "Feature", "properties": { "Name": "NPR TO IRAKBHATTI" }, "geometry": { "type": "LineString", "coordinates": [ [ 81.0572876, 19.7020042, 0.0 ], [ 81.057698, 19.7002547, 0.0 ], [ 81.0580838, 19.6984574, 0.0 ], [ 81.0580538, 19.697052, 0.0 ], [ 81.0574583, 19.6954637, 0.0 ], [ 81.0579133, 19.6947277, 0.0 ], [ 81.0594505, 19.6926264, 0.0 ], [ 81.0608357, 19.6911898, 0.0 ], [ 81.0613262, 19.690139, 0.0 ], [ 81.063215, 19.6864471, 0.0 ], [ 81.0632642, 19.6854179, 0.0 ], [ 81.0630891, 19.6840114, 0.0 ], [ 81.0635847, 19.678453, 0.0 ], [ 81.0637086, 19.6771173, 0.0 ], [ 81.063011, 19.6722824, 0.0 ], [ 81.0634267, 19.6662773, 0.0 ], [ 81.0639086, 19.6643665, 0.0 ], [ 81.0640352, 19.6639306, 0.0 ], [ 81.0645712, 19.6629651, 0.0 ], [ 81.0653523, 19.6621542, 0.0 ], [ 81.066145, 19.6604911, 0.0 ], [ 81.0664218, 19.6594091, 0.0 ], [ 81.0668375, 19.6579244, 0.0 ], [ 81.0678135, 19.6547118, 0.0 ], [ 81.0680956, 19.6534429, 0.0 ], [ 81.0692807, 19.6511621, 0.0 ], [ 81.0700482, 19.6497227, 0.0 ], [ 81.0704825, 19.6480643, 0.0 ], [ 81.0705865, 19.6465828, 0.0 ], [ 81.0707842, 19.644581, 0.0 ], [ 81.0708908, 19.6432928, 0.0 ], [ 81.0709902, 19.642376, 0.0 ], [ 81.0725149, 19.6400881, 0.0 ], [ 81.0708919, 19.6423113, 0.0 ], [ 81.0698651, 19.6405894, 0.0 ], [ 81.0694826, 19.6382689, 0.0 ], [ 81.0692192, 19.6366954, 0.0 ], [ 81.0690835, 19.6347204, 0.0 ], [ 81.068818, 19.6327823, 0.0 ], [ 81.0666474, 19.6307242, 0.0 ], [ 81.0648621, 19.6299197, 0.0 ], [ 81.0640252, 19.6285528, 0.0 ], [ 81.0622333, 19.6267672, 0.0 ], [ 81.060188, 19.6257267, 0.0 ], [ 81.0594927, 19.6245853, 0.0 ], [ 81.058281, 19.6223819, 0.0 ], [ 81.0566296, 19.6205571, 0.0 ], [ 81.0542058, 19.6196971, 0.0 ], [ 81.0516439, 19.6190604, 0.0 ], [ 81.0510448, 19.6184729, 0.0 ], [ 81.0503004, 19.6172251, 0.0 ], [ 81.0496759, 19.6160909, 0.0 ], [ 81.0483558, 19.6151349, 0.0 ], [ 81.0460184, 19.612623, 0.0 ], [ 81.0411866, 19.6057679, 0.0 ], [ 81.037006, 19.5952436, 0.0 ], [ 81.0304482, 19.5862106, 0.0 ], [ 81.0285187, 19.5828966, 0.0 ], [ 81.0331537, 19.5802034, 0.0 ], [ 81.0335762, 19.5760425, 0.0 ], [ 81.0341449, 19.5694176, 0.0 ], [ 81.0332622, 19.5653472, 0.0 ], [ 81.0332747, 19.5651466, 0.0 ], [ 81.0334997, 19.5602584, 0.0 ], [ 81.0358468, 19.5543254, 0.0 ], [ 81.0383855, 19.5511644, 0.0 ], [ 81.0397404, 19.5468378, 0.0 ], [ 81.0314575, 19.5420923, 0.0 ], [ 81.0297786, 19.5408337, 0.0 ], [ 81.028429, 19.5380148, 0.0 ], [ 81.028094, 19.5279188, 0.0 ], [ 81.0219455, 19.5257431, 0.0 ] ] } },
{ "type": "Feature", "properties": { "Name": "ANJREL TO EDKA" }, "geometry": { "type": "LineString", "coordinates": [ [ 81.1662329, 19.8123992, 0.0 ], [ 81.1640636, 19.8013282, 0.0 ], [ 81.1667765, 19.7986373, 0.0 ], [ 81.1743887, 19.7966521, 0.0 ], [ 81.1799069, 19.7928215, 0.0 ], [ 81.1805541, 19.7920447, 0.0 ], [ 81.1835377, 19.7911146, 0.0 ], [ 81.1849129, 19.7899892, 0.0 ], [ 81.1871968, 19.788952, 0.0 ], [ 81.1895075, 19.7876323, 0.0 ], [ 81.1904799, 19.7863395, 0.0 ], [ 81.1943536, 19.7832294, 0.0 ], [ 81.1994569, 19.7807566, 0.0 ], [ 81.2027573, 19.7794684, 0.0 ], [ 81.2032035, 19.7785523, 0.0 ], [ 81.2034806, 19.7783031, 0.0 ], [ 81.2030137, 19.7766683, 0.0 ], [ 81.2045025, 19.7759677, 0.0 ], [ 81.2157068, 19.770032, 0.0 ], [ 81.2239792, 19.7664364, 0.0 ], [ 81.2245553, 19.7620808, 0.0 ], [ 81.2256361, 19.7577097, 0.0 ], [ 81.2261573, 19.7574109, 0.0 ], [ 81.2285167, 19.752923, 0.0 ], [ 81.2316904, 19.7480171, 0.0 ], [ 81.2352204, 19.7424631, 0.0 ], [ 81.2385406, 19.737629, 0.0 ], [ 81.2398242, 19.7351623, 0.0 ], [ 81.246398, 19.7210124, 0.0 ], [ 81.2473766, 19.7184549, 0.0 ], [ 81.2485539, 19.7165562, 0.0 ], [ 81.2494028, 19.7162891, 0.0 ], [ 81.2514028, 19.7166135, 0.0 ], [ 81.2535503, 19.7175792, 0.0 ], [ 81.2608392, 19.7163864, 0.0 ], [ 81.2619914, 19.71918, 0.0 ], [ 81.2623357, 19.7202095, 0.0 ], [ 81.2627503, 19.7214904, 0.0 ], [ 81.2629898, 19.7220806, 0.0 ], [ 81.2638469, 19.7230232, 0.0 ], [ 81.2647885, 19.7235388, 0.0 ], [ 81.2656576, 19.723859, 0.0 ], [ 81.2663615, 19.7242231, 0.0 ], [ 81.2666837, 19.7247378, 0.0 ], [ 81.2669044, 19.7251099, 0.0 ], [ 81.2669848, 19.7254316, 0.0 ], [ 81.2672715, 19.7258596, 0.0 ], [ 81.2676716, 19.726159, 0.0 ], [ 81.2681495, 19.7264267, 0.0 ], [ 81.2685778, 19.7265645, 0.0 ], [ 81.2689089, 19.7268161, 0.0 ], [ 81.2690592, 19.7270465, 0.0 ], [ 81.2690713, 19.7273744, 0.0 ], [ 81.2690873, 19.7277237, 0.0 ], [ 81.2693832, 19.7282881, 0.0 ], [ 81.2698139, 19.7287989, 0.0 ], [ 81.2698902, 19.7291756, 0.0 ], [ 81.2702848, 19.7295137, 0.0 ], [ 81.2707399, 19.7301442, 0.0 ], [ 81.271507, 19.7309391, 0.0 ], [ 81.2723319, 19.732211, 0.0 ], [ 81.2729938, 19.7326982, 0.0 ], [ 81.2739395, 19.7337739, 0.0 ], [ 81.2744608, 19.7344534, 0.0 ], [ 81.2749823, 19.7351367, 0.0 ], [ 81.2753594, 19.7356279, 0.0 ], [ 81.2756308, 19.7359988, 0.0 ], [ 81.2762711, 19.7366667, 0.0 ], [ 81.2766508, 19.7372257, 0.0 ], [ 81.2772751, 19.7380851, 0.0 ], [ 81.2781992, 19.739314, 0.0 ], [ 81.2786971, 19.7399031, 0.0 ], [ 81.2793294, 19.7407801, 0.0 ], [ 81.2801479, 19.7412221, 0.0 ], [ 81.2811503, 19.7420293, 0.0 ], [ 81.281617, 19.7424138, 0.0 ], [ 81.2829219, 19.7433276, 0.0 ], [ 81.2845081, 19.7443777, 0.0 ], [ 81.2853031, 19.7452293, 0.0 ], [ 81.2858674, 19.7458386, 0.0 ], [ 81.2880458, 19.7475756, 0.0 ], [ 81.2900626, 19.7492633, 0.0 ], [ 81.2912151, 19.7502439, 0.0 ], [ 81.2914191, 19.7505462, 0.0 ], [ 81.2916286, 19.7509755, 0.0 ], [ 81.2918199, 19.7514002, 0.0 ], [ 81.2920176, 19.7519221, 0.0 ], [ 81.2924105, 19.7529069, 0.0 ], [ 81.2926819, 19.7534834, 0.0 ], [ 81.2928852, 19.7538411, 0.0 ], [ 81.2932909, 19.7539272, 0.0 ], [ 81.2947503, 19.754565, 0.0 ], [ 81.295289, 19.7548075, 0.0 ], [ 81.2957206, 19.7550347, 0.0 ], [ 81.2969198, 19.7558678, 0.0 ], [ 81.2977815, 19.7564044, 0.0 ], [ 81.2984723, 19.7570294, 0.0 ], [ 81.2992455, 19.7577396, 0.0 ], [ 81.2998041, 19.7582771, 0.0 ], [ 81.3014072, 19.7596407, 0.0 ], [ 81.3022882, 19.760876, 0.0 ], [ 81.302453, 19.7611866, 0.0 ], [ 81.3029113, 19.7619913, 0.0 ], [ 81.3032281, 19.7625546, 0.0 ], [ 81.3036954, 19.7630719, 0.0 ], [ 81.3041042, 19.7634115, 0.0 ], [ 81.3043646, 19.7634931, 0.0 ], [ 81.3046313, 19.7633954, 0.0 ], [ 81.3055197, 19.7631772, 0.0 ], [ 81.3061092, 19.763468, 0.0 ], [ 81.3064417, 19.7637512, 0.0 ], [ 81.3069836, 19.7640602, 0.0 ], [ 81.3076068, 19.7642638, 0.0 ], [ 81.3083474, 19.7647738, 0.0 ], [ 81.3091726, 19.7655695, 0.0 ], [ 81.309862, 19.7662981, 0.0 ], [ 81.3101901, 19.7668428, 0.0 ], [ 81.3103545, 19.7675893, 0.0 ], [ 81.3103592, 19.7682508, 0.0 ], [ 81.3104514, 19.7686816, 0.0 ], [ 81.311629, 19.7694377, 0.0 ], [ 81.3122054, 19.7698041, 0.0 ], [ 81.3129639, 19.7702453, 0.0 ], [ 81.3136288, 19.7703326, 0.0 ], [ 81.3148756, 19.7706196, 0.0 ], [ 81.3156802, 19.7707664, 0.0 ], [ 81.3164117, 19.7706135, 0.0 ], [ 81.3169639, 19.7703984, 0.0 ], [ 81.317555, 19.7701458, 0.0 ], [ 81.3182616, 19.770498, 0.0 ] ] } },
{ "type": "Feature", "properties": { "Name": "NPR TO ANTAGAD" }, "geometry": { "type": "LineString", "coordinates": [ [ 81.2238941, 19.7664358, 0.0 ], [ 81.224861, 19.7696286, 0.0 ], [ 81.2247608, 19.7716189, 0.0 ], [ 81.2239154, 19.7736217, 0.0 ], [ 81.2228087, 19.777207, 0.0 ], [ 81.222192, 19.7804421, 0.0 ], [ 81.2225202, 19.7844378, 0.0 ], [ 81.2232321, 19.7885573, 0.0 ], [ 81.2231732, 19.7929643, 0.0 ], [ 81.2231607, 19.796262, 0.0 ], [ 81.2230285, 19.7994567, 0.0 ], [ 81.224287, 19.8021697, 0.0 ], [ 81.2240365, 19.8056661, 0.0 ], [ 81.2230686, 19.8081609, 0.0 ], [ 81.2232044, 19.8106296, 0.0 ], [ 81.2239469, 19.8126703, 0.0 ], [ 81.2240952, 19.8148471, 0.0 ], [ 81.2227788, 19.816483, 0.0 ], [ 81.2207688, 19.8197764, 0.0 ], [ 81.2197458, 19.8235067, 0.0 ], [ 81.2182548, 19.825105, 0.0 ], [ 81.2169087, 19.8267801, 0.0 ], [ 81.2166174, 19.8294834, 0.0 ], [ 81.2170241, 19.8305374, 0.0 ], [ 81.2189108, 19.8307131, 0.0 ], [ 81.2217875, 19.8296454, 0.0 ], [ 81.2238627, 19.8295807, 0.0 ], [ 81.2239367, 19.8315592, 0.0 ], [ 81.2232992, 19.8331455, 0.0 ], [ 81.2222492, 19.8342951, 0.0 ], [ 81.220529, 19.8360535, 0.0 ], [ 81.2191594, 19.8375715, 0.0 ], [ 81.2196478, 19.8445809, 0.0 ], [ 81.2193463, 19.8474337, 0.0 ], [ 81.218253, 19.8499883, 0.0 ], [ 81.2182086, 19.8532521, 0.0 ], [ 81.2167436, 19.8558946, 0.0 ], [ 81.2161862, 19.8572637, 0.0 ], [ 81.2166059, 19.8630717, 0.0 ], [ 81.2164049, 19.8657784, 0.0 ], [ 81.2156738, 19.8692202, 0.0 ], [ 81.2140964, 19.8733485, 0.0 ], [ 81.2118729, 19.8771103, 0.0 ], [ 81.2089408, 19.8814357, 0.0 ], [ 81.2064449, 19.8852286, 0.0 ], [ 81.2046056, 19.8891853, 0.0 ], [ 81.2020645, 19.8921249, 0.0 ], [ 81.1990567, 19.8960275, 0.0 ], [ 81.1947741, 19.9007304, 0.0 ], [ 81.1914868, 19.901009, 0.0 ], [ 81.1867112, 19.9012014, 0.0 ], [ 81.182994, 19.9012913, 0.0 ], [ 81.1816934, 19.9026501, 0.0 ], [ 81.1814571, 19.9055319, 0.0 ], [ 81.1813889, 19.9073954, 0.0 ], [ 81.1807093, 19.9094771, 0.0 ], [ 81.1808956, 19.9165369, 0.0 ], [ 81.1800644, 19.9187852, 0.0 ], [ 81.1787108, 19.920669, 0.0 ], [ 81.1779592, 19.9218072, 0.0 ], [ 81.1782496, 19.9248214, 0.0 ], [ 81.1792449, 19.9278606, 0.0 ], [ 81.1793875, 19.9302687, 0.0 ], [ 81.1801216, 19.9331584, 0.0 ], [ 81.1792231, 19.9361285, 0.0 ], [ 81.1773871, 19.939162, 0.0 ], [ 81.1728969, 19.9462434, 0.0 ], [ 81.1693145, 19.9517439, 0.0 ], [ 81.1679328, 19.9534813, 0.0 ], [ 81.1668741, 19.9551314, 0.0 ], [ 81.1594763, 19.962371, 0.0 ], [ 81.1584925, 19.9644169, 0.0 ], [ 81.1559051, 19.9686483, 0.0 ], [ 81.1549534, 19.9702033, 0.0 ], [ 81.1552676, 19.9733317, 0.0 ], [ 81.1563961, 19.9765103, 0.0 ], [ 81.1555038, 19.9778336, 0.0 ], [ 81.1540399, 19.9791779, 0.0 ], [ 81.1523849, 19.9807529, 0.0 ], [ 81.1512645, 19.9820714, 0.0 ], [ 81.1499685, 19.9834587, 0.0 ], [ 81.1497706, 19.9856177, 0.0 ], [ 81.1498254, 19.9859608, 0.0 ], [ 81.1502542, 19.9904418, 0.0 ], [ 81.1502415, 19.9906214, 0.0 ], [ 81.1500027, 19.9951, 0.0 ], [ 81.149959, 19.9979949, 0.0 ], [ 81.1502079, 20.0006625, 0.0 ], [ 81.1507854, 20.0068778, 0.0 ], [ 81.1510978, 20.0128975, 0.0 ], [ 81.1507769, 20.0198643, 0.0 ], [ 81.1497379, 20.0262101, 0.0 ], [ 81.1490494, 20.030502, 0.0 ], [ 81.1446337, 20.0398359, 0.0 ], [ 81.1427055, 20.0469976, 0.0 ], [ 81.1395534, 20.0536319, 0.0 ], [ 81.1377402, 20.0576382, 0.0 ], [ 81.1396891, 20.0791883, 0.0 ], [ 81.1383347, 20.0874335, 0.0 ] ] } },
{ "type": "Feature", "properties": { "Name": "NPR TO KGN" }, "geometry": { "type": "LineString", "coordinates": [ [ 81.2743301, 19.7124965, 0.0 ], [ 81.2781784, 19.7116261, 0.0 ], [ 81.2799902, 19.7111603, 0.0 ], [ 81.2823393, 19.7110661, 0.0 ], [ 81.2841591, 19.7111116, 0.0 ], [ 81.2891748, 19.7103957, 0.0 ], [ 81.2917628, 19.7102139, 0.0 ], [ 81.2942733, 19.7100238, 0.0 ], [ 81.2978726, 19.7095333, 0.0 ], [ 81.2999256, 19.7080797, 0.0 ], [ 81.3011476, 19.7079079, 0.0 ], [ 81.3025643, 19.7078028, 0.0 ], [ 81.3083259, 19.7071347, 0.0 ], [ 81.3133849, 19.7068754, 0.0 ], [ 81.3169068, 19.7058885, 0.0 ], [ 81.3192956, 19.7045501, 0.0 ], [ 81.3216779, 19.7032407, 0.0 ], [ 81.323992, 19.7023761, 0.0 ], [ 81.3248325, 19.7016341, 0.0 ], [ 81.325713, 19.7014122, 0.0 ], [ 81.3270743, 19.7013537, 0.0 ], [ 81.3294417, 19.7015769, 0.0 ], [ 81.3330316, 19.6997992, 0.0 ], [ 81.3359226, 19.6983545, 0.0 ], [ 81.3375585, 19.6975096, 0.0 ], [ 81.3388088, 19.6967032, 0.0 ], [ 81.340282, 19.6956246, 0.0 ], [ 81.3440016, 19.6940716, 0.0 ], [ 81.3462946, 19.6930258, 0.0 ], [ 81.3485045, 19.6925583, 0.0 ], [ 81.3504883, 19.6919943, 0.0 ], [ 81.3520237, 19.6917996, 0.0 ], [ 81.354376, 19.6895945, 0.0 ], [ 81.3552481, 19.6891574, 0.0 ], [ 81.3564609, 19.6893328, 0.0 ], [ 81.3586038, 19.6876676, 0.0 ], [ 81.360143, 19.6866237, 0.0 ], [ 81.3613688, 19.686073, 0.0 ], [ 81.3636908, 19.6857898, 0.0 ], [ 81.364229, 19.6858276, 0.0 ], [ 81.3654811, 19.6848033, 0.0 ], [ 81.3668502, 19.6842229, 0.0 ], [ 81.3682961, 19.6837633, 0.0 ], [ 81.3702791, 19.6829448, 0.0 ], [ 81.3728797, 19.6819389, 0.0 ], [ 81.375243, 19.6813532, 0.0 ], [ 81.3786502, 19.6807113, 0.0 ], [ 81.3807396, 19.6806712, 0.0 ], [ 81.3820233, 19.6804275, 0.0 ], [ 81.385186, 19.6799524, 0.0 ], [ 81.3895252, 19.6790607, 0.0 ], [ 81.3899004, 19.6788942, 0.0 ], [ 81.3906903, 19.677591, 0.0 ], [ 81.3938853, 19.6757607, 0.0 ], [ 81.3956605, 19.6748603, 0.0 ], [ 81.3971598, 19.6741173, 0.0 ], [ 81.3991167, 19.6732773, 0.0 ], [ 81.400666, 19.6728168, 0.0 ], [ 81.4049079, 19.6716412, 0.0 ], [ 81.4075134, 19.670853, 0.0 ], [ 81.4095777, 19.6701833, 0.0 ], [ 81.4108074, 19.6696074, 0.0 ], [ 81.414386, 19.668014, 0.0 ], [ 81.4176902, 19.6666102, 0.0 ], [ 81.4221249, 19.6646869, 0.0 ], [ 81.4236126, 19.6643069, 0.0 ], [ 81.4251184, 19.6638713, 0.0 ], [ 81.4262874, 19.663593, 0.0 ], [ 81.4289475, 19.6619264, 0.0 ], [ 81.4306089, 19.6608268, 0.0 ], [ 81.4321447, 19.6600686, 0.0 ], [ 81.4344681, 19.6585062, 0.0 ], [ 81.4421318, 19.6546163, 0.0 ], [ 81.4445891, 19.6535668, 0.0 ], [ 81.4478483, 19.6525398, 0.0 ], [ 81.4506533, 19.6515853, 0.0 ], [ 81.4515342, 19.6519167, 0.0 ], [ 81.4531157, 19.6526172, 0.0 ], [ 81.4542425, 19.6527367, 0.0 ], [ 81.4580486, 19.6518853, 0.0 ], [ 81.4613342, 19.651307, 0.0 ], [ 81.4666871, 19.6505819, 0.0 ], [ 81.4710935, 19.6494192, 0.0 ], [ 81.478847, 19.6475553, 0.0 ], [ 81.4832299, 19.6464086, 0.0 ], [ 81.4841795, 19.6478341, 0.0 ], [ 81.4848057, 19.6479605, 0.0 ], [ 81.4889958, 19.6471205, 0.0 ], [ 81.4933914, 19.6461591, 0.0 ], [ 81.4964415, 19.6455214, 0.0 ], [ 81.5022975, 19.6454057, 0.0 ], [ 81.5032656, 19.6452152, 0.0 ], [ 81.5046726, 19.6445098, 0.0 ], [ 81.5060486, 19.6441775, 0.0 ], [ 81.5084477, 19.6441182, 0.0 ], [ 81.5114067, 19.6443118, 0.0 ], [ 81.5147284, 19.6439961, 0.0 ], [ 81.5177657, 19.6438228, 0.0 ], [ 81.5214143, 19.6433901, 0.0 ], [ 81.5258505, 19.6437307, 0.0 ], [ 81.5285652, 19.6441518, 0.0 ], [ 81.5311482, 19.6444546, 0.0 ], [ 81.5335039, 19.6451678, 0.0 ], [ 81.5349443, 19.6456064, 0.0 ], [ 81.5360482, 19.6461022, 0.0 ], [ 81.5374537, 19.6459859, 0.0 ], [ 81.5386966, 19.6472709, 0.0 ], [ 81.5398636, 19.6481621, 0.0 ], [ 81.5410099, 19.6489505, 0.0 ], [ 81.5425035, 19.6496565, 0.0 ], [ 81.543762, 19.6491195, 0.0 ], [ 81.5452102, 19.6490721, 0.0 ], [ 81.5466155, 19.6492756, 0.0 ], [ 81.5474007, 19.6490733, 0.0 ], [ 81.5525786, 19.6492178, 0.0 ], [ 81.5570112, 19.6493055, 0.0 ], [ 81.5604677, 19.6477537, 0.0 ], [ 81.5626223, 19.6465736, 0.0 ], [ 81.5651172, 19.6443546, 0.0 ], [ 81.5690466, 19.6412068, 0.0 ], [ 81.5715374, 19.6391452, 0.0 ], [ 81.5735487, 19.6382093, 0.0 ], [ 81.5761815, 19.637525, 0.0 ], [ 81.5812134, 19.6353844, 0.0 ], [ 81.5834325, 19.6343469, 0.0 ], [ 81.5894115, 19.631292, 0.0 ], [ 81.5905138, 19.6308604, 0.0 ], [ 81.5927396, 19.6305089, 0.0 ], [ 81.5996022, 19.629086, 0.0 ], [ 81.602215, 19.6284275, 0.0 ], [ 81.6086726, 19.6258742, 0.0 ], [ 81.6101216, 19.6251547, 0.0 ], [ 81.6140546, 19.6234486, 0.0 ], [ 81.6170798, 19.6222593, 0.0 ], [ 81.6229915, 19.6197543, 0.0 ], [ 81.6286675, 19.6180945, 0.0 ], [ 81.6319754, 19.6156591, 0.0 ], [ 81.6385717, 19.6116366, 0.0 ], [ 81.643933, 19.6105968, 0.0 ], [ 81.6487748, 19.608395, 0.0 ], [ 81.6516349, 19.6074112, 0.0 ], [ 81.6533594, 19.6072633, 0.0 ], [ 81.6554486, 19.6058124, 0.0 ], [ 81.6598089, 19.6026028, 0.0 ], [ 81.6630058, 19.6002993, 0.0 ], [ 81.6646839, 19.5959349, 0.0 ], [ 81.6666896, 19.5912763, 0.0 ] ] } },
{ "type": "Feature", "properties": { "Name": "DDI TO BARSOOR" }, "geometry": { "type": "LineString", "coordinates": [ [ 81.3707511, 19.493334, 0.0 ], [ 81.3746074, 19.4909407, 0.0 ], [ 81.3772289, 19.4889818, 0.0 ], [ 81.3774502, 19.4880437, 0.0 ], [ 81.3799373, 19.4855064, 0.0 ], [ 81.3815267, 19.4839888, 0.0 ], [ 81.383759, 19.4818517, 0.0 ], [ 81.385022, 19.4804574, 0.0 ], [ 81.385295, 19.479298, 0.0 ], [ 81.3862073, 19.4775586, 0.0 ], [ 81.3869405, 19.4762504, 0.0 ], [ 81.3875189, 19.4758384, 0.0 ], [ 81.391512, 19.4730193, 0.0 ], [ 81.392484, 19.47198, 0.0 ], [ 81.3933109, 19.4709905, 0.0 ], [ 81.3959094, 19.4687384, 0.0 ], [ 81.3970351, 19.4677628, 0.0 ], [ 81.3979068, 19.4671442, 0.0 ], [ 81.4007162, 19.4632208, 0.0 ], [ 81.401771, 19.4618108, 0.0 ], [ 81.4031841, 19.4590024, 0.0 ], [ 81.4040232, 19.4572337, 0.0 ], [ 81.4041649, 19.4544173, 0.0 ], [ 81.4005965, 19.4537414, 0.0 ], [ 81.3965693, 19.4534684, 0.0 ], [ 81.3934146, 19.4529587, 0.0 ], [ 81.3914882, 19.4524462, 0.0 ], [ 81.3874671, 19.4517638, 0.0 ], [ 81.3864152, 19.4496224, 0.0 ], [ 81.3857645, 19.447886, 0.0 ], [ 81.385211, 19.4461023, 0.0 ], [ 81.3840405, 19.4410779, 0.0 ], [ 81.3837458, 19.4383559, 0.0 ], [ 81.3833277, 19.4319297, 0.0 ], [ 81.3831223, 19.4291588, 0.0 ], [ 81.3832081, 19.4226266, 0.0 ], [ 81.3834495, 19.4209302, 0.0 ], [ 81.383914, 19.4150079, 0.0 ], [ 81.3842775, 19.411777, 0.0 ], [ 81.3842194, 19.4108827, 0.0 ], [ 81.380721, 19.4052017, 0.0 ], [ 81.3802846, 19.4034353, 0.0 ], [ 81.3797783, 19.4000441, 0.0 ], [ 81.3793739, 19.3969945, 0.0 ], [ 81.3803223, 19.3938023, 0.0 ], [ 81.3842597, 19.3860575, 0.0 ], [ 81.3852334, 19.3840689, 0.0 ], [ 81.3862232, 19.3829623, 0.0 ], [ 81.3889639, 19.3786729, 0.0 ], [ 81.3903037, 19.3768023, 0.0 ], [ 81.39281, 19.3731508, 0.0 ], [ 81.3938792, 19.3706611, 0.0 ], [ 81.3963531, 19.3656329, 0.0 ], [ 81.4010484, 19.3621688, 0.0 ], [ 81.4020205, 19.3610322, 0.0 ], [ 81.4031853, 19.3600516, 0.0 ], [ 81.4037834, 19.3586983, 0.0 ], [ 81.4054572, 19.3573856, 0.0 ], [ 81.4069174, 19.3568459, 0.0 ], [ 81.4086307, 19.3557693, 0.0 ], [ 81.4103888, 19.353443, 0.0 ], [ 81.4104873, 19.3519262, 0.0 ], [ 81.4102899, 19.3501892, 0.0 ], [ 81.4098311, 19.3486908, 0.0 ], [ 81.4093651, 19.3474483, 0.0 ], [ 81.4071067, 19.3445512, 0.0 ], [ 81.4051647, 19.3426983, 0.0 ], [ 81.4017283, 19.3387037, 0.0 ], [ 81.4003857, 19.336952, 0.0 ], [ 81.3996689, 19.3354894, 0.0 ], [ 81.3989824, 19.331779, 0.0 ], [ 81.3987272, 19.3296605, 0.0 ], [ 81.3981922, 19.3280951, 0.0 ], [ 81.3963659, 19.326764, 0.0 ], [ 81.3946747, 19.3259282, 0.0 ], [ 81.3896299, 19.3226644, 0.0 ], [ 81.3871228, 19.3211809, 0.0 ], [ 81.3845206, 19.3204785, 0.0 ], [ 81.3837101, 19.3190994, 0.0 ], [ 81.3835458, 19.3167389, 0.0 ], [ 81.3836391, 19.3147859, 0.0 ], [ 81.3835251, 19.3125748, 0.0 ], [ 81.3841301, 19.3073775, 0.0 ], [ 81.3840643, 19.3055808, 0.0 ], [ 81.3840415, 19.3017549, 0.0 ], [ 81.3839457, 19.3000019, 0.0 ], [ 81.3839879, 19.2983731, 0.0 ], [ 81.3841697, 19.2963334, 0.0 ], [ 81.3844302, 19.295288, 0.0 ], [ 81.3851076, 19.294439, 0.0 ], [ 81.3861529, 19.2932106, 0.0 ], [ 81.38667, 19.2924723, 0.0 ], [ 81.3867966, 19.2918063, 0.0 ], [ 81.3863514, 19.2896427, 0.0 ], [ 81.3861548, 19.2874021, 0.0 ], [ 81.3860303, 19.2857961, 0.0 ], [ 81.3879999, 19.2822032, 0.0 ], [ 81.3886467, 19.2810428, 0.0 ], [ 81.388796, 19.2792897, 0.0 ], [ 81.3895356, 19.2752274, 0.0 ], [ 81.3897223, 19.2733482, 0.0 ], [ 81.3904279, 19.269151, 0.0 ], [ 81.3913873, 19.2664484, 0.0 ], [ 81.3924615, 19.2646512, 0.0 ], [ 81.3931529, 19.2632404, 0.0 ], [ 81.3950544, 19.2605548, 0.0 ], [ 81.3959218, 19.259389, 0.0 ], [ 81.396241, 19.2586611, 0.0 ], [ 81.3973183, 19.2553713, 0.0 ], [ 81.3978614, 19.2534345, 0.0 ], [ 81.3981957, 19.2529544, 0.0 ], [ 81.3995358, 19.2520009, 0.0 ], [ 81.4010707, 19.2508645, 0.0 ], [ 81.4022411, 19.2484171, 0.0 ], [ 81.4022312, 19.2467277, 0.0 ], [ 81.4025758, 19.2456436, 0.0 ], [ 81.4031771, 19.2445394, 0.0 ], [ 81.4047007, 19.2433915, 0.0 ], [ 81.4054038, 19.2418236, 0.0 ], [ 81.4069987, 19.2402631, 0.0 ], [ 81.4082186, 19.238904, 0.0 ], [ 81.4097024, 19.2369429, 0.0 ], [ 81.4122581, 19.2318098, 0.0 ], [ 81.4131449, 19.2294659, 0.0 ], [ 81.4149019, 19.2278178, 0.0 ], [ 81.4164727, 19.2264668, 0.0 ], [ 81.4175559, 19.225387, 0.0 ], [ 81.418512, 19.2241109, 0.0 ], [ 81.4187718, 19.2230483, 0.0 ], [ 81.4194184, 19.2214485, 0.0 ], [ 81.4201202, 19.2189324, 0.0 ], [ 81.420123, 19.2171383, 0.0 ], [ 81.4190271, 19.2156958, 0.0 ], [ 81.4173163, 19.21258, 0.0 ], [ 81.4161091, 19.2101573, 0.0 ], [ 81.4150691, 19.2088349, 0.0 ], [ 81.4122893, 19.2075245, 0.0 ], [ 81.4112602, 19.2060472, 0.0 ], [ 81.4102082, 19.2042653, 0.0 ], [ 81.4085277, 19.2029335, 0.0 ], [ 81.4079678, 19.2017502, 0.0 ], [ 81.4073446, 19.1978519, 0.0 ], [ 81.4054468, 19.1965115, 0.0 ], [ 81.404066, 19.1939328, 0.0 ], [ 81.403516, 19.1924492, 0.0 ], [ 81.4035514, 19.1920858, 0.0 ], [ 81.4042575, 19.1913456, 0.0 ], [ 81.4054586, 19.1900314, 0.0 ], [ 81.4071323, 19.1884113, 0.0 ], [ 81.4073387, 19.1881845, 0.0 ] ] } },
{ "type": "Feature", "properties": { "Name": "npr to orcha" }, "geometry": { "type": "LineString", "coordinates": [ [ 81.2612967, 19.716295, 0.0 ], [ 81.2742553, 19.712568, 0.0 ], [ 81.2790239, 19.7063157, 0.0 ], [ 81.283655, 19.7017825, 0.0 ], [ 81.2875019, 19.6978736, 0.0 ], [ 81.2933077, 19.691559, 0.0 ], [ 81.3010395, 19.6843843, 0.0 ], [ 81.3023869, 19.6828791, 0.0 ], [ 81.3028196, 19.6819208, 0.0 ], [ 81.306172, 19.6757591, 0.0 ], [ 81.3102497, 19.6697598, 0.0 ], [ 81.3131223, 19.6653932, 0.0 ], [ 81.3162006, 19.663532, 0.0 ], [ 81.3172424, 19.6630266, 0.0 ], [ 81.3182002, 19.6624673, 0.0 ], [ 81.3190635, 19.6629032, 0.0 ], [ 81.3199666, 19.6623293, 0.0 ], [ 81.3210437, 19.6609642, 0.0 ], [ 81.3214675, 19.6587964, 0.0 ], [ 81.3218035, 19.6570089, 0.0 ], [ 81.3215473, 19.6553566, 0.0 ], [ 81.3224105, 19.6529113, 0.0 ], [ 81.3228841, 19.6519355, 0.0 ], [ 81.3239886, 19.6506313, 0.0 ], [ 81.3249339, 19.6496985, 0.0 ], [ 81.3298464, 19.6475605, 0.0 ], [ 81.3303078, 19.6469524, 0.0 ], [ 81.3308393, 19.6450575, 0.0 ], [ 81.3303085, 19.6438635, 0.0 ], [ 81.3301635, 19.6432872, 0.0 ], [ 81.3309332, 19.6420515, 0.0 ], [ 81.3324268, 19.6393863, 0.0 ], [ 81.3345438, 19.6378407, 0.0 ], [ 81.3350952, 19.6377707, 0.0 ], [ 81.3398385, 19.6373853, 0.0 ], [ 81.3415551, 19.6370262, 0.0 ], [ 81.3430866, 19.6365235, 0.0 ], [ 81.3466141, 19.6352405, 0.0 ], [ 81.3483885, 19.6337377, 0.0 ], [ 81.3484824, 19.6332533, 0.0 ], [ 81.3487572, 19.6306054, 0.0 ], [ 81.3486652, 19.629019, 0.0 ], [ 81.3479433, 19.6274907, 0.0 ], [ 81.3482064, 19.6267538, 0.0 ], [ 81.349231, 19.6248221, 0.0 ], [ 81.3498024, 19.6235345, 0.0 ], [ 81.3509102, 19.6222912, 0.0 ], [ 81.3533647, 19.6185068, 0.0 ], [ 81.3537979, 19.6178366, 0.0 ], [ 81.35396, 19.6168205, 0.0 ], [ 81.3547127, 19.613806, 0.0 ], [ 81.3553231, 19.6122013, 0.0 ], [ 81.3558592, 19.6109713, 0.0 ], [ 81.3564838, 19.6099802, 0.0 ], [ 81.357688, 19.608636, 0.0 ], [ 81.3582581, 19.6069054, 0.0 ], [ 81.3588204, 19.6064176, 0.0 ], [ 81.3597895, 19.6057052, 0.0 ], [ 81.3618636, 19.6034495, 0.0 ], [ 81.3627307, 19.6019832, 0.0 ], [ 81.3645693, 19.6007782, 0.0 ], [ 81.3659507, 19.599525, 0.0 ], [ 81.3672991, 19.5974291, 0.0 ], [ 81.3671981, 19.5949919, 0.0 ], [ 81.366757, 19.5930044, 0.0 ], [ 81.3659409, 19.5914792, 0.0 ], [ 81.3655701, 19.5897769, 0.0 ], [ 81.3649541, 19.5883026, 0.0 ], [ 81.3652009, 19.5869793, 0.0 ], [ 81.3646838, 19.5866654, 0.0 ], [ 81.3628152, 19.5861537, 0.0 ], [ 81.3623047, 19.584979, 0.0 ], [ 81.3624974, 19.5840458, 0.0 ], [ 81.3642818, 19.5802536, 0.0 ], [ 81.3654863, 19.5793068, 0.0 ], [ 81.3658134, 19.5782671, 0.0 ], [ 81.3665782, 19.5757653, 0.0 ], [ 81.3676666, 19.5736296, 0.0 ], [ 81.367649, 19.5728631, 0.0 ], [ 81.3681828, 19.5712932, 0.0 ], [ 81.3682948, 19.5669302, 0.0 ], [ 81.368818, 19.561505, 0.0 ], [ 81.3703231, 19.5602774, 0.0 ], [ 81.3719127, 19.559082, 0.0 ], [ 81.3722604, 19.5581264, 0.0 ], [ 81.3723103, 19.5571058, 0.0 ], [ 81.3722142, 19.5567018, 0.0 ], [ 81.3722851, 19.5563509, 0.0 ], [ 81.3724487, 19.5561333, 0.0 ], [ 81.3725246, 19.5560109, 0.0 ], [ 81.3725332, 19.5559933, 0.0 ], [ 81.3725998, 19.5557412, 0.0 ], [ 81.3728843, 19.5549209, 0.0 ], [ 81.3728099, 19.5544078, 0.0 ], [ 81.3725161, 19.5531053, 0.0 ], [ 81.3724862, 19.5525711, 0.0 ], [ 81.372547, 19.5515761, 0.0 ], [ 81.3725873, 19.5509976, 0.0 ], [ 81.3726603, 19.5503854, 0.0 ], [ 81.3726586, 19.5494946, 0.0 ], [ 81.3725041, 19.548823, 0.0 ], [ 81.3725589, 19.5485038, 0.0 ], [ 81.3728182, 19.5479165, 0.0 ], [ 81.3737391, 19.5470896, 0.0 ], [ 81.3740225, 19.5467242, 0.0 ], [ 81.3741937, 19.5462475, 0.0 ], [ 81.3744869, 19.5453934, 0.0 ], [ 81.3743835, 19.5449021, 0.0 ], [ 81.3739784, 19.5439806, 0.0 ], [ 81.3735177, 19.5433148, 0.0 ], [ 81.3730868, 19.5427658, 0.0 ], [ 81.3724944, 19.5419808, 0.0 ], [ 81.3722795, 19.5415323, 0.0 ], [ 81.3721396, 19.5410714, 0.0 ], [ 81.3720036, 19.5406219, 0.0 ], [ 81.3719742, 19.5401818, 0.0 ], [ 81.3733498, 19.5394589, 0.0 ], [ 81.3746289, 19.5387099, 0.0 ], [ 81.3750844, 19.5371461, 0.0 ], [ 81.3756191, 19.5363788, 0.0 ], [ 81.3763108, 19.5358064, 0.0 ], [ 81.3788818, 19.5338361, 0.0 ], [ 81.3793765, 19.5331207, 0.0 ], [ 81.379487, 19.532367, 0.0 ], [ 81.3792526, 19.5314828, 0.0 ], [ 81.3789743, 19.5307958, 0.0 ], [ 81.3782454, 19.5287036, 0.0 ], [ 81.377726, 19.5265944, 0.0 ], [ 81.3779322, 19.5254138, 0.0 ], [ 81.3785102, 19.5238587, 0.0 ], [ 81.3770946, 19.5216476, 0.0 ], [ 81.3763676, 19.520695, 0.0 ], [ 81.3759267, 19.5196966, 0.0 ], [ 81.3740627, 19.5143835, 0.0 ], [ 81.3726945, 19.5107921, 0.0 ], [ 81.3700184, 19.5042602, 0.0 ], [ 81.3723211, 19.4985393, 0.0 ], [ 81.3706676, 19.4936169, 0.0 ], [ 81.3700757, 19.4926264, 0.0 ], [ 81.3669727, 19.4886958, 0.0 ], [ 81.3634721, 19.4855207, 0.0 ], [ 81.3590483, 19.4814035, 0.0 ], [ 81.3558861, 19.4783863, 0.0 ], [ 81.3519686, 19.4775197, 0.0 ], [ 81.3476205, 19.4743089, 0.0 ], [ 81.3442428, 19.4721896, 0.0 ], [ 81.3415382, 19.4706301, 0.0 ], [ 81.3387995, 19.4696694, 0.0 ], [ 81.3369304, 19.4657876, 0.0 ], [ 81.3365635, 19.4614118, 0.0 ], [ 81.3361828, 19.4588027, 0.0 ], [ 81.3296618, 19.4540637, 0.0 ], [ 81.3288974, 19.4519143, 0.0 ], [ 81.3258805, 19.4465926, 0.0 ], [ 81.3187717, 19.4495959, 0.0 ], [ 81.3142086, 19.4525994, 0.0 ], [ 81.3123912, 19.4541136, 0.0 ], [ 81.3078107, 19.4575988, 0.0 ], [ 81.3029738, 19.4594593, 0.0 ], [ 81.3002697, 19.4616009, 0.0 ], [ 81.2995812, 19.4618721, 0.0 ], [ 81.2982468, 19.4633661, 0.0 ], [ 81.2977429, 19.463366, 0.0 ], [ 81.2968438, 19.4626842, 0.0 ], [ 81.2949586, 19.4617366, 0.0 ], [ 81.2916146, 19.4616345, 0.0 ], [ 81.2894598, 19.4620408, 0.0 ], [ 81.2891588, 19.4626173, 0.0 ], [ 81.2883011, 19.4641895, 0.0 ], [ 81.2874597, 19.4648102, 0.0 ], [ 81.2866438, 19.4648022, 0.0 ], [ 81.2854698, 19.464539, 0.0 ], [ 81.283076, 19.4620614, 0.0 ], [ 81.2804501, 19.4601065, 0.0 ], [ 81.2783381, 19.460397, 0.0 ], [ 81.2762441, 19.4606923, 0.0 ], [ 81.2745201, 19.4603113, 0.0 ], [ 81.2677464, 19.4575826, 0.0 ], [ 81.2651479, 19.4559161, 0.0 ], [ 81.2632915, 19.4553408, 0.0 ], [ 81.2580422, 19.452853, 0.0 ], [ 81.2558572, 19.4526074, 0.0 ], [ 81.2543332, 19.4530651, 0.0 ], [ 81.2496843, 19.4503624, 0.0 ], [ 81.2464254, 19.4484025, 0.0 ], [ 81.2437776, 19.4464304, 0.0 ], [ 81.2417115, 19.4449694, 0.0 ], [ 81.236781, 19.4411395, 0.0 ], [ 81.233906, 19.438326, 0.0 ], [ 81.23384, 19.4365593, 0.0 ], [ 81.2341465, 19.4352118, 0.0 ], [ 81.2325221, 19.4320304, 0.0 ], [ 81.231113, 19.4296522, 0.0 ], [ 81.2296368, 19.4274064, 0.0 ], [ 81.2256583, 19.4228393, 0.0 ], [ 81.2247595, 19.4208313, 0.0 ], [ 81.2218736, 19.416205, 0.0 ], [ 81.2206053, 19.4148329, 0.0 ], [ 81.2186031, 19.4133336, 0.0 ], [ 81.2170542, 19.4123072, 0.0 ], [ 81.2153428, 19.4113558, 0.0 ], [ 81.2144225, 19.411052, 0.0 ], [ 81.2120304, 19.4092553, 0.0 ], [ 81.2087941, 19.4076291, 0.0 ], [ 81.2071444, 19.4056143, 0.0 ], [ 81.2058644, 19.4037403, 0.0 ], [ 81.2050442, 19.4006852, 0.0 ], [ 81.2043516, 19.3992274, 0.0 ], [ 81.2024975, 19.3973317, 0.0 ], [ 81.2029096, 19.3931518, 0.0 ], [ 81.2024534, 19.3917687, 0.0 ], [ 81.1992133, 19.3894597, 0.0 ], [ 81.1974096, 19.3885481, 0.0 ], [ 81.1962109, 19.3883404, 0.0 ], [ 81.1943832, 19.3864181, 0.0 ], [ 81.1929718, 19.3862074, 0.0 ], [ 81.1929996, 19.3853553, 0.0 ], [ 81.1929123, 19.38457, 0.0 ], [ 81.1933755, 19.3837397, 0.0 ], [ 81.1933487, 19.383415, 0.0 ], [ 81.1930295, 19.3829812, 0.0 ], [ 81.1924186, 19.3828188, 0.0 ], [ 81.1916704, 19.3829185, 0.0 ], [ 81.1898239, 19.3803046, 0.0 ], [ 81.1894161, 19.3791043, 0.0 ], [ 81.1889621, 19.3778357, 0.0 ], [ 81.1882499, 19.3764661, 0.0 ], [ 81.1879076, 19.3747551, 0.0 ], [ 81.1870385, 19.3725738, 0.0 ], [ 81.184623, 19.3707895, 0.0 ], [ 81.182026, 19.3678759, 0.0 ], [ 81.1796346, 19.3654384, 0.0 ], [ 81.1790718, 19.3625047, 0.0 ], [ 81.1755608, 19.3585819, 0.0 ], [ 81.1729713, 19.3564988, 0.0 ], [ 81.1718672, 19.3562305, 0.0 ], [ 81.1715422, 19.3558532, 0.0 ], [ 81.1722986, 19.3555578, 0.0 ], [ 81.1728489, 19.3549039, 0.0 ], [ 81.1723275, 19.3533221, 0.0 ], [ 81.1695216, 19.3516315, 0.0 ], [ 81.1658875, 19.3501565, 0.0 ], [ 81.1622266, 19.3492686, 0.0 ], [ 81.1591285, 19.3477389, 0.0 ], [ 81.1561703, 19.3468726, 0.0 ], [ 81.1523704, 19.3475808, 0.0 ], [ 81.1512197, 19.3474456, 0.0 ], [ 81.1496381, 19.3471134, 0.0 ], [ 81.1473202, 19.3475055, 0.0 ], [ 81.1449563, 19.3463812, 0.0 ], [ 81.1438035, 19.3460082, 0.0 ], [ 81.1409547, 19.3463951, 0.0 ], [ 81.1394662, 19.3459027, 0.0 ], [ 81.1384128, 19.3435321, 0.0 ], [ 81.1375905, 19.3399462, 0.0 ] ] } },
{ "type": "Feature", "properties": { "Name": "Untitled Path" }, "geometry": { "type": "LineString", "coordinates": [ [ 81.0218763, 19.5257999, 0.0 ], [ 81.0139241, 19.5251949, 0.0 ], [ 81.0052809, 19.5238681, 0.0 ], [ 80.9990244, 19.5228156, 0.0 ], [ 80.9891683, 19.5240237, 0.0 ], [ 80.9824827, 19.5239921, 0.0 ], [ 80.9745484, 19.5242483, 0.0 ], [ 80.9705807, 19.5223735, 0.0 ], [ 80.9669798, 19.5199902, 0.0 ], [ 80.9609529, 19.5185034, 0.0 ], [ 80.9554024, 19.5168076, 0.0 ], [ 80.9519838, 19.5164763, 0.0 ], [ 80.9470327, 19.5166765, 0.0 ], [ 80.9426632, 19.5153371, 0.0 ], [ 80.9393074, 19.5132236, 0.0 ], [ 80.9255444, 19.5033064, 0.0 ], [ 80.9056347, 19.4872145, 0.0 ] ] } },
{ "type": "Feature", "properties": { "Name": "Untitled Path" }, "geometry": { "type": "LineString", "coordinates": [ [ 81.2487337, 19.7160666, 0.0 ], [ 81.2468987, 19.7143612, 0.0 ], [ 81.2439737, 19.7128997, 0.0 ], [ 81.2416355, 19.7118684, 0.0 ], [ 81.2391794, 19.7106054, 0.0 ], [ 81.240186, 19.7081065, 0.0 ], [ 81.2418067, 19.7051475, 0.0 ], [ 81.2436482, 19.7042011, 0.0 ], [ 81.2439514, 19.7032273, 0.0 ], [ 81.2439906, 19.7025845, 0.0 ], [ 81.2441015, 19.7016695, 0.0 ], [ 81.2443599, 19.7010944, 0.0 ], [ 81.2451058, 19.6949193, 0.0 ], [ 81.2451996, 19.6910361, 0.0 ], [ 81.2458517, 19.686917, 0.0 ], [ 81.2432542, 19.6825566, 0.0 ], [ 81.2428959, 19.6814461, 0.0 ], [ 81.2459447, 19.6794349, 0.0 ], [ 81.2453256, 19.6764277, 0.0 ], [ 81.2445459, 19.6708862, 0.0 ], [ 81.2448855, 19.6691938, 0.0 ], [ 81.2436932, 19.6683294, 0.0 ], [ 81.2425045, 19.6672811, 0.0 ], [ 81.2417177, 19.6663716, 0.0 ], [ 81.2414278, 19.6650521, 0.0 ], [ 81.2408256, 19.662922, 0.0 ], [ 81.2403469, 19.6613792, 0.0 ], [ 81.2396646, 19.6596232, 0.0 ], [ 81.2388045, 19.6588413, 0.0 ], [ 81.2384083, 19.6581364, 0.0 ], [ 81.2381438, 19.6581055, 0.0 ], [ 81.2376798, 19.6582189, 0.0 ], [ 81.2373278, 19.6581758, 0.0 ], [ 81.2373355, 19.6578677, 0.0 ], [ 81.237786, 19.6575875, 0.0 ], [ 81.2379164, 19.6557621, 0.0 ], [ 81.2384687, 19.6538744, 0.0 ], [ 81.2389762, 19.6530095, 0.0 ], [ 81.2382901, 19.6485748, 0.0 ], [ 81.2378123, 19.6476131, 0.0 ], [ 81.2348248, 19.6481092, 0.0 ], [ 81.2342733, 19.6457258, 0.0 ], [ 81.2323387, 19.6413681, 0.0 ], [ 81.2274141, 19.638111, 0.0 ], [ 81.2261273, 19.6359584, 0.0 ], [ 81.2237632, 19.632453, 0.0 ], [ 81.2243448, 19.6281848, 0.0 ], [ 81.2189252, 19.6249473, 0.0 ], [ 81.2168521, 19.6209781, 0.0 ], [ 81.215108, 19.6195428, 0.0 ], [ 81.2074395, 19.6155415, 0.0 ], [ 81.2029038, 19.61319, 0.0 ], [ 81.199613, 19.6107349, 0.0 ], [ 81.19134, 19.6054223, 0.0 ], [ 81.1883353, 19.6007971, 0.0 ], [ 81.1834398, 19.5951811, 0.0 ], [ 81.1797574, 19.589998, 0.0 ], [ 81.1717779, 19.5855403, 0.0 ], [ 81.1666487, 19.5811042, 0.0 ], [ 81.1599933, 19.5771971, 0.0 ], [ 81.1505434, 19.5697881, 0.0 ], [ 81.1456532, 19.5653499, 0.0 ], [ 81.141219, 19.563973, 0.0 ], [ 81.1344316, 19.5600753, 0.0 ], [ 81.1273367, 19.5555789, 0.0 ], [ 81.1213519, 19.5520886, 0.0 ], [ 81.1024081, 19.5608088, 0.0 ], [ 81.0921215, 19.5640537, 0.0 ], [ 81.0841614, 19.5657255, 0.0 ], [ 81.0781394, 19.5652577, 0.0 ], [ 81.069085, 19.5615921, 0.0 ], [ 81.062115, 19.56014, 0.0 ], [ 81.0542797, 19.5569295, 0.0 ], [ 81.0470602, 19.5516908, 0.0 ], [ 81.0446213, 19.5501849, 0.0 ], [ 81.0392669, 19.5489377, 0.0 ] ] } }
]
}
